NORAD_CAT_ID,OBJECT_NAME,OBJECT_TYPE,EPOCH,MEAN_MOTION,ECCENTRICITY,INCLINATION,RA_OF_ASC_NODE,ARG_OF_PERICENTER,MEAN_ANOMALY,BSTAR,MEAN_MOTION_DOT,MEAN_MOTION_DDOT,TLE_LINE0,TLE_LINE1,TLE_LINE2,SEMIMAJOR_AXIS,PERIOD,APOGEE,PERIGEE,DECAYED
53628.0,STARLINK-4600,PAYLOAD,2024-02-22 02:44:14,15.08826459,0.0001663,53.2204,345.192,71.7377,288.3797,2.6752e-05,1.38e-06,0.0,0 STARLINK-4600,1 53628U 22104AS  24053.11405965  .00000138  00000-0  26752-4 0  9996,2 53628  53.2204 345.1920 0001663  71.7377 288.3797 15.08826459 82365,6917.922,95.438,540.937,538.636,0.0
53628.0,STARLINK-4600,PAYLOAD,2024-02-22 12:16:33,15.0883342,0.0001647,53.2201,343.4076,76.8844,283.2332,3.6084e-05,2.86e-06,0.0,0 STARLINK-4600,1 53628U 22104AS  24053.51149705  .00000286  00000-0  36084-4 0  9990,2 53628  53.2201 343.4076 0001647  76.8844 283.2332 15.08833420 83111,6917.901,95.438,540.905,538.626,0.0
53628.0,STARLINK-4600,PAYLOAD,2024-02-23 04:10:23,15.08851736,0.0001918,53.2197,340.4323,111.5038,248.6159,1.2709e-05,-8.6e-07,0.0,0 STARLINK-4600,1 53628U 22104AS  24054.17388186 -.00000086  00000-0  12709-4 0  9998,2 53628  53.2197 340.4323 0001918 111.5038 248.6159 15.08851736 82526,6917.845,95.437,541.036,538.383,0.0
53628.0,STARLINK-4600,PAYLOAD,2024-02-23 12:07:19,15.08839834,0.0001291,53.2196,338.9475,81.2065,278.9073,-5.9268e-06,-3.82e-06,0.0,0 STARLINK-4600,1 53628U 22104AS  24054.50508734 -.00000382  00000-0 -59268-5 0  9990,2 53628  53.2196 338.9475 0001291  81.2065 278.9073 15.08839834 82573,6917.881,95.438,540.639,538.853,0.0
53628.0,STARLINK-4600,PAYLOAD,2024-02-24 11:58:07,15.08837911,0.0001441,53.2176,334.4857,89.3847,270.7311,0.00012548,1.71e-05,0.0,0 STARLINK-4600,1 53628U 22104AS  24055.49869477  .00001710  00000-0  12548-3 0  9995,2 53628  53.2176 334.4857 0001441  89.3847 270.7311 15.08837911 82726,6917.887,95.438,540.749,538.755,0.0
53628.0,STARLINK-4600,PAYLOAD,2024-02-25 11:48:53,15.08849945,0.0001515,53.2182,330.027,86.4379,273.6787,0.00031617,4.749e-05,0.0,0 STARLINK-4600,1 53628U 22104AS  24056.49229127  .00004749  00000-0  31617-3 0  9991,2 53628  53.2182 330.0270 0001515  86.4379 273.6787 15.08849945 83566,6917.85,95.437,540.763,538.667,0.0
53628.0,STARLINK-4600,PAYLOAD,2024-02-25 22:56:35,15.08851806,0.0001486,53.2188,327.9467,85.4305,274.6856,0.00038215,5.801e-05,0.0,0 STARLINK-4600,1 53628U 22104AS  24056.95597048  .00005801  00000-0  38215-3 0  9993,2 53628  53.2188 327.9467 0001486  85.4305 274.6856 15.08851806 83635,6917.844,95.437,540.737,538.681,0.0
53628.0,STARLINK-4600,PAYLOAD,2024-02-26 00:31:58,15.08857667,0.000138,53.2179,327.6477,103.1411,256.9735,0.0004858,7.456e-05,0.0,0 STARLINK-4600,1 53628U 22104AS  24057.02220676  .00007456  00000-0  48580-3 0  9996,2 53628  53.2179 327.6477 0001380 103.1411 256.9735 15.08857667 83643,6917.826,95.436,540.646,538.737,0.0
53628.0,STARLINK-4600,PAYLOAD,2024-02-26 18:01:13,15.08842821,0.0001565,53.2189,324.3783,91.6848,268.4324,8.5514e-05,1.073e-05,0.0,0 STARLINK-4600,1 53628U 22104AS  24057.75085196  .00001073  00000-0  85514-4 0  9990,2 53628  53.2189 324.3783 0001565  91.6848 268.4324 15.08842821 83062,6917.872,95.437,540.819,538.654,0.0
53628.0,STARLINK-4600,PAYLOAD,2024-02-26 22:47:23,15.08820411,0.0001367,53.2183,323.487,93.2031,266.9117,-0.00042695,-7.073e-05,0.0,0 STARLINK-4600,1 53628U 22104AS  24057.94957783 -.00007073  00000-0 -42695-3 0  9991,2 53628  53.2183 323.4870 0001367  93.2031 266.9117 15.08820411 83788,6917.94,95.439,540.751,538.86,0.0
53628.0,STARLINK-4600,PAYLOAD,2024-02-27 03:33:33,15.08817943,0.0001168,53.2173,322.5948,68.5819,291.5298,-0.00028595,-4.833e-05,0.0,0 STARLINK-4600,1 53628U 22104AS  24058.14830430 -.00004833  00000-0 -28595-3 0  9997,2 53628  53.2173 322.5948 0001168  68.5819 291.5298 15.08817943 83129,6917.948,95.439,540.621,539.005,0.0
53628.0,STARLINK-4600,PAYLOAD,2024-02-27 22:38:11,15.08829432,0.0001724,53.2183,319.0242,110.6332,249.4845,0.00027236,4.048e-05,0.0,0 STARLINK-4600,1 53628U 22104AS  24058.94319028  .00004048  00000-0  27236-3 0  9997,2 53628  53.2183 319.0242 0001724 110.6332 249.4845 15.08829432 83930,6917.913,95.438,540.97,538.585,0.0
53628.0,STARLINK-4600,PAYLOAD,2024-02-28 00:13:34,15.08831699,0.0001191,53.2168,318.73,81.4464,278.6663,0.00021074,3.067e-05,0.0,0 STARLINK-4600,1 53628U 22104AS  24059.00943065  .00003067  00000-0  21074-3 0  9993,2 53628  53.2168 318.7300 0001191  81.4464 278.6663 15.08831699 83258,6917.906,95.438,540.595,538.947,0.0
53628.0,STARLINK-4600,PAYLOAD,2024-02-28 09:45:53,15.08843122,0.0001226,53.2171,316.9456,83.5991,276.514,0.0008005,0.00012476,0.0,0 STARLINK-4600,1 53628U 22104AS  24059.40687304  .00012476  00000-0  80050-3 0  9991,2 53628  53.2171 316.9456 0001226  83.5991 276.5140 15.08843122 84006,6917.871,95.437,540.584,538.888,0.0
53628.0,STARLINK-4600,PAYLOAD,2024-02-28 17:42:49,15.08859286,0.0001162,53.2163,315.4584,80.8818,279.2306,0.0010001,0.00015673,0.0,0 STARLINK-4600,1 53628U 22104AS  24059.73806948  .00015673  00000-0  10001-2 0  9994,2 53628  53.2163 315.4584 0001162  80.8818 279.2306 15.08859286 83360,6917.821,95.436,540.49,538.883,0.0
53628.0,STARLINK-4600,PAYLOAD,2024-02-28 22:28:58,15.08873419,0.0001194,53.2167,314.567,83.9923,276.1205,0.0011239,0.0001766,0.0,0 STARLINK-4600,1 53628U 22104AS  24059.93678452  .00017660  00000-0  11239-2 0  9995,2 53628  53.2167 314.5670 0001194  83.9923 276.1205 15.08873419 84084,6917.778,95.435,540.469,538.817,0.0
53628.0,STARLINK-4600,PAYLOAD,2024-02-29 09:36:39,15.08873321,0.000133,53.2164,312.4841,83.1869,276.9274,0.00071341,0.00011094,0.0,0 STARLINK-4600,1 53628U 22104AS  24060.40045800  .00011094  00000-0  71341-3 0  9990,2 53628  53.2164 312.4841 0001330  83.1869 276.9274 15.08873321 84155,6917.779,95.435,540.564,538.723,0.0
53628.0,STARLINK-4600,PAYLOAD,2024-02-29 22:19:44,15.08851465,9.91e-05,53.216,310.1061,99.1065,261.0039,0.0010677,0.00016751,0.0,0 STARLINK-4600,1 53628U 22104AS  24060.93037523  .00016751  00000-0  10677-2 0  9990,2 53628  53.2160 310.1061 0000991  99.1065 261.0039 15.08851465 84235,6917.845,95.437,540.396,539.025,0.0
53628.0,STARLINK-4600,PAYLOAD,2024-03-01 01:30:30,15.08858554,0.0001316,53.217,309.5114,94.0552,266.059,0.00039811,6.057e-05,0.0,0 STARLINK-4600,1 53628U 22104AS  24061.06285386  .00006057  00000-0  39811-3 0  9997,2 53628  53.2170 309.5114 0001316  94.0552 266.0590 15.08858554 83562,6917.824,95.436,540.599,538.778,0.0
53628.0,STARLINK-4600,PAYLOAD,2024-03-01 09:27:26,15.08849335,0.000162,53.2161,308.0217,86.9096,273.2081,0.00039827,6.058e-05,0.0,0 STARLINK-4600,1 53628U 22104AS  24061.39405529  .00006058  00000-0  39827-3 0  9994,2 53628  53.2161 308.0217 0001620  86.9096 273.2081 15.08849335 84306,6917.852,95.437,540.838,538.596,0.0
53628.0,STARLINK-4600,PAYLOAD,2024-03-01 22:10:31,15.08845388,0.0001418,53.2161,305.6471,96.7788,263.3366,0.00035008,5.289e-05,0.0,0 STARLINK-4600,1 53628U 22104AS  24061.92397558  .00005289  00000-0  35008-3 0  9997,2 53628  53.2161 305.6471 0001418  96.7788 263.3366 15.08845388 84381,6917.864,95.437,540.71,538.748,0.0
53628.0,STARLINK-4600,PAYLOAD,2024-03-01 23:45:54,15.08848644,0.0001372,53.2162,305.3497,95.2019,264.913,0.00033185,4.999e-05,0.0,0 STARLINK-4600,1 53628U 22104AS  24061.99021467  .00004999  00000-0  33185-3 0  9998,2 53628  53.2162 305.3497 0001372  95.2019 264.9130 15.08848644 83706,6917.854,95.437,540.668,538.77,0.0
53628.0,STARLINK-4600,PAYLOAD,2024-03-02 20:25:55,15.08839085,0.000192,53.2169,301.4809,65.132,294.9872,0.00023572,3.465e-05,0.0,0 STARLINK-4600,1 53628U 22104AS  24062.85134099  .00003465  00000-0  23572-3 0  9996,2 53628  53.2169 301.4809 0001920  65.1320 294.9872 15.08839085 83836,6917.883,95.438,541.076,538.42,0.0
53628.0,STARLINK-4600,PAYLOAD,2024-03-02 22:01:18,15.08837653,0.0001565,53.2169,301.185,74.7095,285.407,0.00010366,1.362e-05,0.0,0 STARLINK-4600,1 53628U 22104AS  24062.91758013  .00001362  00000-0  10366-3 0  9992,2 53628  53.2169 301.1850 0001565  74.7095 285.4070 15.08837653 84531,6917.888,95.438,540.835,538.67,0.0
53628.0,STARLINK-4600,PAYLOAD,2024-03-03 09:09:00,15.08841369,0.0001345,53.2174,299.1014,90.7053,269.4093,0.00015687,2.21e-05,0.0,0 STARLINK-4600,1 53628U 22104AS  24063.38125959  .00002210  00000-0  15687-3 0  9995,2 53628  53.2174 299.1014 0001345  90.7053 269.4093 15.08841369 84607,6917.876,95.437,540.672,538.811,0.0
53628.0,STARLINK-4600,PAYLOAD,2024-03-03 20:16:42,15.08838255,0.0001117,53.217,297.0191,94.2752,265.8367,0.00021502,3.136e-05,0.0,0 STARLINK-4600,1 53628U 22104AS  24063.84494190  .00003136  00000-0  21502-3 0  9993,2 53628  53.2170 297.0191 0001117  94.2752 265.8367 15.08838255 84679,6917.886,95.438,540.523,538.978,0.0
53628.0,STARLINK-4600,PAYLOAD,2024-03-04 01:02:51,15.08851857,0.000187,53.2183,296.1226,128.6501,231.4659,0.00035917,5.435e-05,0.0,0 STARLINK-4600,1 53628U 22104AS  24064.04365689  .00005435  00000-0  35917-3 0  9995,2 53628  53.2183 296.1226 0001870 128.6501 231.4659 15.08851857 84016,6917.844,95.437,541.003,538.416,0.0
53628.0,STARLINK-4600,PAYLOAD,2024-03-04 08:59:47,15.08850131,0.0001535,53.2184,294.6377,111.533,248.5826,0.00033225,5.005e-05,0.0,0 STARLINK-4600,1 53628U 22104AS  24064.37485612  .00005005  00000-0  33225-3 0  9993,2 53628  53.2184 294.6377 0001535 111.5330 248.5826 15.08850131 84756,6917.849,95.437,540.776,538.653,0.0
53628.0,STARLINK-4600,PAYLOAD,2024-03-04 21:42:51,15.08857602,0.0001418,53.2174,292.2593,96.6494,263.466,0.00031461,4.725e-05,0.0,0 STARLINK-4600,1 53628U 22104AS  24064.90476843  .00004725  00000-0  31461-3 0  9996,2 53628  53.2174 292.2593 0001418  96.6494 263.4660 15.08857602 84834,6917.827,95.436,540.673,538.711,0.0
53628.0,STARLINK-4600,PAYLOAD,2024-03-05 00:53:38,15.08859825,0.0001429,53.2174,291.6645,96.8405,263.275,0.00033698,5.082e-05,0.0,0 STARLINK-4600,1 53628U 22104AS  24065.03724634  .00005082  00000-0  33698-3 0  9996,2 53628  53.2174 291.6645 0001429  96.8405 263.2750 15.08859825 84850,6917.82,95.436,540.673,538.696,0.0
